{
  "type": "FeatureCollection",
  "features": [
    {
      "type": "Feature",
      "properties": {
        "norad_id": 33822,
        "name": "COSMOS 2251 DEB",
        "group": "cosmos-2251-debris",
        "lat": 43.46978618429399,
        "lon": -13.050606470676643,
        "alt_km": 849.3012917378337,
        "timestamp": "2025-12-18T23:35:49.455758+00:00",
        "meta_object_name": "COSMOS 2251 DEB",
        "meta_object_id": "1993-036BP",
        "meta_epoch": "2025-12-18T14:47:06.305280",
        "meta_mean_motion": 14.13097437,
        "meta_eccentricity": 0.01530391,
        "meta_inclination": 74.0678,
        "meta_ra_of_asc_node": 183.3082,
        "meta_arg_of_pericenter": 228.1949,
        "meta_mean_anomaly": 200.7069,
        "meta_ephemeris_type": 0,
        "meta_classification_type": "U",
        "meta_norad_cat_id": 33822,
        "meta_element_set_no": 999,
        "meta_rev_at_epoch": 86137,
        "meta_bstar": 0.00096204395,
        "meta_mean_motion_dot": 1.984e-05,
        "meta_mean_motion_ddot": 0,
        "tle_line1": "1 33822U 93036BP  25352.61604520  .00001984  00000+0  96204-3 0  9995",
        "tle_line2": "2 33822  74.0678 183.3082 0153039 228.1949 200.7069 14.13097437861371"
      },
      "geometry": {
        "type": "Point",
        "coordinates": [
          -13.050606470676643,
          43.46978618429399
        ]
      }
    },
    {
      "type": "Feature",
      "properties": {
        "norad_id": 33823,
        "name": "COSMOS 2251 DEB",
        "group": "cosmos-2251-debris",
        "lat": 3.2008862572773373,
        "lon": 139.31926291108164,
        "alt_km": 925.2485407093764,
        "timestamp": "2025-12-18T23:35:49.455769+00:00",
        "meta_object_name": "COSMOS 2251 DEB",
        "meta_object_id": "1993-036BQ",
        "meta_epoch": "2025-12-18T09:59:53.961792",
        "meta_mean_motion": 13.98964063,
        "meta_eccentricity": 0.02093766,
        "meta_inclination": 73.8094,
        "meta_ra_of_asc_node": 139.381,
        "meta_arg_of_pericenter": 263.6279,
        "meta_mean_anomaly": 124.9202,
        "meta_ephemeris_type": 0,
        "meta_classification_type": "U",
        "meta_norad_cat_id": 33823,
        "meta_element_set_no": 999,
        "meta_rev_at_epoch": 85689,
        "meta_bstar": 0.0006224723,
        "meta_mean_motion_dot": 1.058e-05,
        "meta_mean_motion_ddot": 0,
        "tle_line1": "1 33823U 93036BQ  25352.41659678  .00001058  00000+0  62247-3 0  9990",
        "tle_line2": "2 33823  73.8094 139.3810 0209376 263.6279 124.9202 13.98964063856894"
      },
      "geometry": {
        "type": "Point",
        "coordinates": [
          139.31926291108164,
          3.2008862572773373
        ]
      }
    },
    {
      "type": "Feature",
      "properties": {
        "norad_id": 33825,
        "name": "COSMOS 2251 DEB",
        "group": "cosmos-2251-debris",
        "lat": 15.455653651014286,
        "lon": -168.90463526868376,
        "alt_km": 721.7584847803209,
        "timestamp": "2025-12-18T23:35:49.455780+00:00",
        "meta_object_name": "COSMOS 2251 DEB",
        "meta_object_id": "1993-036BS",
        "meta_epoch": "2025-12-18T11:44:14.157600",
        "meta_mean_motion": 14.69812495,
        "meta_eccentricity": 0.00848399,
        "meta_inclination": 73.9848,
        "meta_ra_of_asc_node": 16.6108,
        "meta_arg_of_pericenter": 342.2776,
        "meta_mean_anomaly": 87.8844,
        "meta_ephemeris_type": 0,
        "meta_classification_type": "U",
        "meta_norad_cat_id": 33825,
        "meta_element_set_no": 999,
        "meta_rev_at_epoch": 88964,
        "meta_bstar": 0.00063567363,
        "meta_mean_motion_dot": 3.979e-05,
        "meta_mean_motion_ddot": 0,
        "tle_line1": "1 33825U 93036BS  25352.48905275  .00003979  00000+0  63567-3 0  9996",
        "tle_line2": "2 33825  73.9848  16.6108 0084839 342.2776  87.8844 14.69812495889640"
      },
      "geometry": {
        "type": "Point",
        "coordinates": [
          -168.90463526868376,
          15.455653651014286
        ]
      }
    },
    {
      "type": "Feature",
      "properties": {
        "norad_id": 33826,
        "name": "COSMOS 2251 DEB",
        "group": "cosmos-2251-debris",
        "lat": 6.890819556743337,
        "lon": 40.11718911533186,
        "alt_km": 704.1846873971899,
        "timestamp": "2025-12-18T23:35:49.455791+00:00",
        "meta_object_name": "COSMOS 2251 DEB",
        "meta_object_id": "1993-036BT",
        "meta_epoch": "2025-12-18T14:19:48.595008",
        "meta_mean_motion": 14.51749978,
        "meta_eccentricity": 0.00826875,
        "meta_inclination": 74.0648,
        "meta_ra_of_asc_node": 38.8641,
        "meta_arg_of_pericenter": 81.2775,
        "meta_mean_anomaly": 69.7494,
        "meta_ephemeris_type": 0,
        "meta_classification_type": "U",
        "meta_norad_cat_id": 33826,
        "meta_element_set_no": 999,
        "meta_rev_at_epoch": 87854,
        "meta_bstar": 0.00046794376,
        "meta_mean_motion_dot": 1.938e-05,
        "meta_mean_motion_ddot": 0,
        "tle_line1": "1 33826U 93036BT  25352.59709022  .00001938  00000+0  46794-3 0  9997",
        "tle_line2": "2 33826  74.0648  38.8641 0082687  81.2775  69.7494 14.51749978878540"
      },
      "geometry": {
        "type": "Point",
        "coordinates": [
          40.11718911533186,
          6.890819556743337
        ]
      }
    },
    {
      "type": "Feature",
      "properties": {
        "norad_id": 33828,
        "name": "COSMOS 2251 DEB",
        "group": "cosmos-2251-debris",
        "lat": 71.78488392834903,
        "lon": -13.898802751055229,
        "alt_km": 756.6864273748006,
        "timestamp": "2025-12-18T23:35:49.455802+00:00",
        "meta_object_name": "COSMOS 2251 DEB",
        "meta_object_id": "1993-036BV",
        "meta_epoch": "2025-12-18T14:57:26.289216",
        "meta_mean_motion": 14.44349901,
        "meta_eccentricity": 0.00294991,
        "meta_inclination": 74.0456,
        "meta_ra_of_asc_node": 227.1496,
        "meta_arg_of_pericenter": 299.1705,
        "meta_mean_anomaly": 88.5191,
        "meta_ephemeris_type": 0,
        "meta_classification_type": "U",
        "meta_norad_cat_id": 33828,
        "meta_element_set_no": 999,
        "meta_rev_at_epoch": 88398,
        "meta_bstar": 0.00031793888,
        "meta_mean_motion_dot": 1.073e-05,
        "meta_mean_motion_ddot": 0,
        "tle_line1": "1 33828U 93036BV  25352.62322094  .00001073  00000+0  31794-3 0  9997",
        "tle_line2": "2 33828  74.0456 227.1496 0029499 299.1705  88.5191 14.44349901883986"
      },
      "geometry": {
        "type": "Point",
        "coordinates": [
          -13.898802751055229,
          71.78488392834903
        ]
      }
    },
    {
      "type": "Feature",
      "properties": {
        "norad_id": 33830,
        "name": "COSMOS 2251 DEB",
        "group": "cosmos-2251-debris",
        "lat": -13.85728825512097,
        "lon": -145.92567841473894,
        "alt_km": 613.6909543203292,
        "timestamp": "2025-12-18T23:35:49.455813+00:00",
        "meta_object_name": "COSMOS 2251 DEB",
        "meta_object_id": "1993-036BX",
        "meta_epoch": "2025-12-18T15:48:46.495008",
        "meta_mean_motion": 14.76962393,
        "meta_eccentricity": 0.00425343,
        "meta_inclination": 74.0317,
        "meta_ra_of_asc_node": 218.7605,
        "meta_arg_of_pericenter": 337.6056,
        "meta_mean_anomaly": 84.1934,
        "meta_ephemeris_type": 0,
        "meta_classification_type": "U",
        "meta_norad_cat_id": 33830,
        "meta_element_set_no": 999,
        "meta_rev_at_epoch": 89559,
        "meta_bstar": 0.00055710545,
        "meta_mean_motion_dot": 3.949e-05,
        "meta_mean_motion_ddot": 0,
        "tle_line1": "1 33830U 93036BX  25352.65887147  .00003949  00000+0  55711-3 0  9997",
        "tle_line2": "2 33830  74.0317 218.7605 0042534 337.6056  84.1934 14.76962393895593"
      },
      "geometry": {
        "type": "Point",
        "coordinates": [
          -145.92567841473894,
          -13.85728825512097
        ]
      }
    },
    {
      "type": "Feature",
      "properties": {
        "norad_id": 33832,
        "name": "COSMOS 2251 DEB",
        "group": "cosmos-2251-debris",
        "lat": 29.556348265111204,
        "lon": -152.60693649514948,
        "alt_km": 705.6147605049009,
        "timestamp": "2025-12-18T23:35:49.455824+00:00",
        "meta_object_name": "COSMOS 2251 DEB",
        "meta_object_id": "1993-036BZ",
        "meta_epoch": "2025-12-18T13:43:59.885760",
        "meta_mean_motion": 14.60713349,
        "meta_eccentricity": 0.00244938,
        "meta_inclination": 74.0531,
        "meta_ra_of_asc_node": 198.8457,
        "meta_arg_of_pericenter": 228.8013,
        "meta_mean_anomaly": 161.745,
        "meta_ephemeris_type": 0,
        "meta_classification_type": "U",
        "meta_norad_cat_id": 33832,
        "meta_element_set_no": 999,
        "meta_rev_at_epoch": 88510,
        "meta_bstar": 0.00098519922,
        "meta_mean_motion_dot": 4.796e-05,
        "meta_mean_motion_ddot": 0,
        "tle_line1": "1 33832U 93036BZ  25352.57222090  .00004796  00000+0  98520-3 0  9996",
        "tle_line2": "2 33832  74.0531 198.8457 0024493 228.8013 161.7450 14.60713349885103"
      },
      "geometry": {
        "type": "Point",
        "coordinates": [
          -152.60693649514948,
          29.556348265111204
        ]
      }
    }
  ]
}